[
    {
        "Altitude(m)": 567186.8123980893,
        "Argument of Periapsis(deg)": -0.022603160782972403,
        "Eccentricity": 0.0,
        "Inclination(deg)": 97.0,
        "Latitude(deg)": -4.711709507330469,
        "Longitude(deg)": 107.07847907089787,
        "Mean Anomaly(deg)": 184.61764326918745,
        "RAAN(deg)": 30.005947053618513,
        "Satellite Name": "Starlink Shell 3 1666",
        "Satellite Number": 1666,
        "Semi-Major Axis(m)": 6938478.169268562,
        "Time(s)": 570
    },
    {
        "Altitude(m)": 567301.9010655693,
        "Argument of Periapsis(deg)": -0.02299970746337543,
        "Eccentricity": 0.0,
        "Inclination(deg)": 97.0,
        "Latitude(deg)": -5.335887119088326,
        "Longitude(deg)": 106.9599875864594,
        "Mean Anomaly(deg)": 185.24311946689252,
        "RAAN(deg)": 30.006051387892512,
        "Satellite Name": "Starlink Shell 3 1666",
        "Satellite Number": 1666,
        "Semi-Major Axis(m)": 6938478.169268562,
        "Time(s)": 580
    },
    {
        "Altitude(m)": 567421.1234694925,
        "Argument of Periapsis(deg)": -0.023396254143778456,
        "Eccentricity": 0.0,
        "Inclination(deg)": 97.0,
        "Latitude(deg)": -5.960024529277428,
        "Longitude(deg)": 106.84134355742314,
        "Mean Anomaly(deg)": 185.86859566459756,
        "RAAN(deg)": 30.00615572216653,
        "Satellite Name": "Starlink Shell 3 1666",
        "Satellite Number": 1666,
        "Semi-Major Axis(m)": 6938478.169268562,
        "Time(s)": 590
    },
    {
        "Altitude(m)": 567544.4510515111,
        "Argument of Periapsis(deg)": -0.023792800824181483,
        "Eccentricity": 0.0,
        "Inclination(deg)": 97.0,
        "Latitude(deg)": -6.584118758272214,
        "Longitude(deg)": 106.72252826435887,
        "Mean Anomaly(deg)": 186.4940718623026,
        "RAAN(deg)": 30.00626005644054,
        "Satellite Name": "Starlink Shell 3 1666",
        "Satellite Number": 1666,
        "Semi-Major Axis(m)": 6938478.169268562,
        "Time(s)": 600
    },
    {
        "Altitude(m)": 567671.8532381135,
        "Argument of Periapsis(deg)": -0.024189347504584503,
        "Eccentricity": 0.0,
        "Inclination(deg)": 97.0,
        "Latitude(deg)": -7.208166827655513,
        "Longitude(deg)": 106.60352282659322,
        "Mean Anomaly(deg)": 187.11954806000765,
        "RAAN(deg)": 30.006364390714545,
        "Satellite Name": "Starlink Shell 3 1666",
        "Satellite Number": 1666,
        "Semi-Major Axis(m)": 6938478.169268562,
        "Time(s)": 610
    },
    {
        "Altitude(m)": 567803.2974527874,
        "Argument of Periapsis(deg)": -0.02458589418498753,
        "Eccentricity": 0.0,
        "Inclination(deg)": 97.0,
        "Latitude(deg)": -7.832165760012641,
        "Longitude(deg)": 106.48430868820635,
        "Mean Anomaly(deg)": 187.74502425771269,
        "RAAN(deg)": 30.006468724988554,
        "Satellite Name": "Starlink Shell 3 1666",
        "Satellite Number": 1666,
        "Semi-Major Axis(m)": 6938478.169268562,
        "Time(s)": 620
    },
    {
        "Altitude(m)": 567938.749129218,
        "Argument of Periapsis(deg)": -0.024982440865390556,
        "Eccentricity": 0.0,
        "Inclination(deg)": 97.0,
        "Latitude(deg)": -8.456112578696986,
        "Longitude(deg)": 106.36486642269861,
        "Mean Anomaly(deg)": 188.37050045541775,
        "RAAN(deg)": 30.006573059262564,
        "Satellite Name": "Starlink Shell 3 1666",
        "Satellite Number": 1666,
        "Semi-Major Axis(m)": 6938478.169268562,
        "Time(s)": 630
    },
    {
        "Altitude(m)": 568078.1717254764,
        "Argument of Periapsis(deg)": -0.025378987545793576,
        "Eccentricity": 0.0,
        "Inclination(deg)": 97.0,
        "Latitude(deg)": -9.080004307564177,
        "Longitude(deg)": 106.24517705871185,
        "Mean Anomaly(deg)": 188.9959766531228,
        "RAAN(deg)": 30.00667739353657,
        "Satellite Name": "Starlink Shell 3 1666",
        "Satellite Number": 1666,
        "Semi-Major Axis(m)": 6938478.169268562,
        "Time(s)": 640
    },
    {
        "Altitude(m)": 568221.5267392239,
        "Argument of Periapsis(deg)": -0.025775534226196602,
        "Eccentricity": 0.0,
        "Inclination(deg)": 97.0,
        "Latitude(deg)": -9.703837970671222,
        "Longitude(deg)": 106.12522088385471,
        "Mean Anomaly(deg)": 189.62145285082784,
        "RAAN(deg)": 30.00678172781058,
        "Satellite Name": "Starlink Shell 3 1666",
        "Satellite Number": 1666,
        "Semi-Major Axis(m)": 6938478.169268562,
        "Time(s)": 650
    },
    {
        "Altitude(m)": 568368.7737238714,
        "Argument of Periapsis(deg)": -0.026172080906599626,
        "Eccentricity": 0.0,
        "Inclination(deg)": 97.0,
        "Latitude(deg)": -10.327610591938079,
        "Longitude(deg)": 106.00497792901506,
        "Mean Anomaly(deg)": 190.24692904853288,
        "RAAN(deg)": 30.006886062084593,
        "Satellite Name": "Starlink Shell 3 1666",
        "Satellite Number": 1666,
        "Semi-Major Axis(m)": 6938478.169268562,
        "Time(s)": 660
    },
    {
        "Altitude(m)": 568519.8703057566,
        "Argument of Periapsis(deg)": -0.026568627587002652,
        "Eccentricity": 0.0,
        "Inclination(deg)": 97.0,
        "Latitude(deg)": -10.951319194767976,
        "Longitude(deg)": 105.88442845214462,
        "Mean Anomaly(deg)": 190.8724052462379,
        "RAAN(deg)": 30.006990396358596,
        "Satellite Name": "Starlink Shell 3 1666",
        "Satellite Number": 1666,
        "Semi-Major Axis(m)": 6938478.169268562,
        "Time(s)": 670
    },
    {
        "Altitude(m)": 568674.7722022623,
        "Argument of Periapsis(deg)": -0.02696517426740568,
        "Eccentricity": 0.0,
        "Inclination(deg)": 97.0,
        "Latitude(deg)": -11.574960801623421,
        "Longitude(deg)": 105.76355190859748,
        "Mean Anomaly(deg)": 191.49788144394293,
        "RAAN(deg)": 30.00709473063261,
        "Satellite Name": "Starlink Shell 3 1666",
        "Satellite Number": 1666,
        "Semi-Major Axis(m)": 6938478.169268562,
        "Time(s)": 680
    },
    {
        "Altitude(m)": 568833.4332409218,
        "Argument of Periapsis(deg)": -0.0273617209478087,
        "Eccentricity": 0.0,
        "Inclination(deg)": 97.0,
        "Latitude(deg)": -12.198532433554128,
        "Longitude(deg)": 105.64232743372027,
        "Mean Anomaly(deg)": 192.12335764164803,
        "RAAN(deg)": 30.00719906490661,
        "Satellite Name": "Starlink Shell 3 1666",
        "Satellite Number": 1666,
        "Semi-Major Axis(m)": 6938478.169268562,
        "Time(s)": 690
    },
    {
        "Altitude(m)": 568995.8053794239,
        "Argument of Periapsis(deg)": -0.027758267628211725,
        "Eccentricity": 0.0,
        "Inclination(deg)": 97.0,
        "Latitude(deg)": -12.822031109673867,
        "Longitude(deg)": 105.52073432477059,
        "Mean Anomaly(deg)": 192.74883383935307,
        "RAAN(deg)": 30.007303399180625,
        "Satellite Name": "Starlink Shell 3 1666",
        "Satellite Number": 1666,
        "Semi-Major Axis(m)": 6938478.169268562,
        "Time(s)": 700
    },
    {
        "Altitude(m)": 569161.8387266143,
        "Argument of Periapsis(deg)": -0.028154814308614752,
        "Eccentricity": 0.0,
        "Inclination(deg)": 97.0,
        "Latitude(deg)": -13.445453846581746,
        "Longitude(deg)": 105.3987510092379,
        "Mean Anomaly(deg)": 193.3743100370581,
        "RAAN(deg)": 30.007407733454635,
        "Satellite Name": "Starlink Shell 3 1666",
        "Satellite Number": 1666,
        "Semi-Major Axis(m)": 6938478.169268562,
        "Time(s)": 710
    },
    {
        "Altitude(m)": 569331.4815643672,
        "Argument of Periapsis(deg)": -0.02855136098901778,
        "Eccentricity": 0.0,
        "Inclination(deg)": 97.0,
        "Latitude(deg)": -14.06879765772447,
        "Longitude(deg)": 105.2763555252587,
        "Mean Anomaly(deg)": 193.99978623476312,
        "RAAN(deg)": 30.00751206772864,
        "Satellite Name": "Starlink Shell 3 1666",
        "Satellite Number": 1666,
        "Semi-Major Axis(m)": 6938478.169268562,
        "Time(s)": 720
    },
    {
        "Altitude(m)": 569504.680370411,
        "Argument of Periapsis(deg)": -0.028947907669420805,
        "Eccentricity": 0.0,
        "Inclination(deg)": 97.0,
        "Latitude(deg)": -14.69205955269595,
        "Longitude(deg)": 105.15352600119265,
        "Mean Anomaly(deg)": 194.62526243246816,
        "RAAN(deg)": 30.00761640200265,
        "Satellite Name": "Starlink Shell 3 1666",
        "Satellite Number": 1666,
        "Semi-Major Axis(m)": 6938478.169268562,
        "Time(s)": 730
    },
    {
        "Altitude(m)": 569681.3798420061,
        "Argument of Periapsis(deg)": -0.029344454349823825,
        "Eccentricity": 0.0,
        "Inclination(deg)": 97.0,
        "Latitude(deg)": -15.315236536468229,
        "Longitude(deg)": 105.03023962142753,
        "Mean Anomaly(deg)": 195.2507386301732,
        "RAAN(deg)": 30.007720736276664,
        "Satellite Name": "Starlink Shell 3 1666",
        "Satellite Number": 1666,
        "Semi-Major Axis(m)": 6938478.169268562,
        "Time(s)": 740
    },
    {
        "Altitude(m)": 569861.522920557,
        "Argument of Periapsis(deg)": -0.029741001030226845,
        "Eccentricity": 0.0,
        "Inclination(deg)": 97.0,
        "Latitude(deg)": -15.938325608551942,
        "Longitude(deg)": 104.90647310409273,
        "Mean Anomaly(deg)": 195.87621482787824,
        "RAAN(deg)": 30.007825070550666,
        "Satellite Name": "Starlink Shell 3 1666",
        "Satellite Number": 1666,
        "Semi-Major Axis(m)": 6938478.169268562,
        "Time(s)": 750
    }
]